[{"OBJECT_NAME":"STARLINK-30494","OBJECT_ID":"2023-151G","EPOCH":"2026-03-09T08:39:06.366240","MEAN_MOTION":15.28417441,"ECCENTRICITY":0.00011553,"INCLINATION":43.0027,"RA_OF_ASC_NODE":192.4566,"ARG_OF_PERICENTER":241.5536,"MEAN_ANOMALY":118.52,"EPHEMERIS_TYPE":0,"CLASSIFICATION_TYPE":"U","NORAD_CAT_ID":57970,"ELEMENT_SET_NO":999,"REV_AT_EPOCH":13740,"BSTAR":-3.569111e-5,"MEAN_MOTION_DOT":-1.272e-5,"MEAN_MOTION_DDOT":0},{"OBJECT_NAME":"STARLINK-34324","OBJECT_ID":"2025-117E","EPOCH":"2026-03-09T22:15:51.957216","MEAN_MOTION":15.30218329,"ECCENTRICITY":0.0001408,"INCLINATION":53.1605,"RA_OF_ASC_NODE":38.3938,"ARG_OF_PERICENTER":96.8997,"MEAN_ANOMALY":263.2164,"EPHEMERIS_TYPE":0,"CLASSIFICATION_TYPE":"U","NORAD_CAT_ID":64207,"ELEMENT_SET_NO":999,"REV_AT_EPOCH":4353,"BSTAR":0.0012951374,"MEAN_MOTION_DOT":0.00038218,"MEAN_MOTION_DDOT":0}]
